TISAT 1                 
1 36799U 10035E   26068.75703561  .00024554  00000+0  91005-3 0  9996
2 36799  98.0645   6.8512 0001343 159.3030 200.8262 15.27628633852505
STARLINK-31956          
1 59930U 24106J   26067.18859722  .00004487  00000+0  17240-3 0  9991
2 59930  43.0006 340.9670 0000902 260.5874  99.4876 15.27591276100293
